BEIDOU-2 IGSO-1 (C06)   
1 36828U 10036A   24249.77052221 -.00000125  00000+0  00000+0 0  9991
2 36828  54.2557 168.8395 0040983 205.2750 355.2955  1.00259154 51694
BEIDOU-2 G4 (C04)       
1 37210U 10057A   24250.62799117 -.00000107  00000+0  00000+0 0  9998
2 37210   2.0370  69.5888 0006768 157.4388 145.3834  1.00272603 50783
BEIDOU-2 IGSO-2 (C07)   
1 37256U 10068A   24250.52577625 -.00000173  00000+0  00000+0 0  9990
2 37256  48.7300 279.8267 0040435 217.3325 146.2811  1.00277787 50295
BEIDOU-2 IGSO-3 (C08)   
1 37384U 11013A   24250.36785625 -.00000161  00000+0  00000+0 0  9993
2 37384  61.4785  46.3298 0032333 174.3310   4.6232  1.00288925 49154
BEIDOU-2 IGSO-4 (C09)   
1 37763U 11038A   24249.73230137 -.00000085  00000+0  00000+0 0  9998
2 37763  54.5625 171.4712 0128944 229.4173 301.8346  1.00291160 48135
BEIDOU-2 IGSO-5 (C10)   
1 37948U 11073A   24249.52543947 -.00000138  00000+0  00000+0 0  9994
2 37948  48.8657 279.5312 0103100 221.5310 129.5164  1.00275639 46617
BEIDOU-2 G5 (C05)       
1 38091U 12008A   24250.51693024  .00000061  00000+0  00000+0 0  9990
2 38091   2.2698  71.2599 0004391 213.3921 306.2457  1.00274342 45976
BEIDOU-2 M3 (C11)       
1 38250U 12018A   24250.01311860 -.00000084  00000+0  00000+0 0  9994
2 38250  56.2810 326.6526 0023877 260.9350  98.8592  1.86231404 83858
BEIDOU-2 M4 (C12)       
1 38251U 12018B   24249.94298944 -.00000084  00000+0  00000+0 0  9992
2 38251  56.1872 325.9203 0014814 260.5709  99.3265  1.86232096 83856
BEIDOU-2 M6 (C14)       
1 38775U 12050B   24250.18952096 -.00000005  00000+0  00000+0 0  9995
2 38775  55.9783  84.4560 0011347 348.8080  11.2370  1.86231254 81222
BEIDOU-2 G6 (C02)       
1 38953U 12059A   24250.52194532 -.00000172  00000+0  00000+0 0  9998
2 38953   2.7619  79.8493 0007064 314.7990 223.3784  1.00274253 43409
BEIDOU-3S IGSO-1S (C31) 
1 40549U 15019A   24250.61244889 -.00000159  00000+0  00000+0 0  9997
2 40549  50.4207 303.2300 0036476 196.7215 162.5379  1.00288318 34562
BEIDOU-3S M2S (C58)     
1 40748U 15037A   24249.06867859 -.00000084  00000+0  00000+0 0  9990
2 40748  55.4173 324.3200 0011901 247.5719 112.3674  1.86230240 62010
BEIDOU-3S M1S (C57)     
1 40749U 15037B   24250.41513562 -.00000081  00000+0  00000+0 0  9998
2 40749  55.4189 324.2607 0002799 319.4694  40.5756  1.86227695 62040
BEIDOU-3S IGSO-2S (C56) 
1 40938U 15053A   24250.52394356 -.00000102  00000+0  00000+0 0  9990
2 40938  50.2336 266.4526 0053018 190.0812 173.4820  1.00288434 32857
BEIDOU-2 IGSO-6 (C13)   
1 41434U 16021A   24248.98937934 -.00000122  00000+0  00000+0 0  9992
2 41434  59.2971  44.5428 0049714 221.2043 167.2128  1.00257275 30961
BEIDOU-2 G7 (C03)       
1 41586U 16037A   24250.62291867 -.00000350  00000+0  00000+0 0  9992
2 41586   1.5707  65.6435 0006968 358.1147 257.2328  1.00268599   383
BEIDOU-3 M1 (C19)       
1 43001U 17069A   24249.95546071 -.00000004  00000+0  00000+0 0  9992
2 43001  56.1280  84.5710 0007422 310.0606  49.9455  1.86231649 46510
BEIDOU-3 M2 (C20)       
1 43002U 17069B   24248.81899968 -.00000002  00000+0  00000+0 0  9991
2 43002  56.1264  84.6445 0006180 345.7685  14.2897  1.86231152 46481
BEIDOU-3 M7 (C27)       
1 43107U 18003A   24249.10429930 -.00000086  00000+0  00000+0 0  9999
2 43107  54.8757 324.8746 0003039  88.2450 271.8539  1.86232670 45255
BEIDOU-3 M8 (C28)       
1 43108U 18003B   24249.04540035 -.00000086  00000+0  00000+0 0  9993
2 43108  54.8686 324.8618 0004433 249.3860 110.6307  1.86231128 45259
BEIDOU-3 M4 (C22)       
1 43207U 18018A   24245.19100985  .00000004  00000+0  00000+0 0  9996
2 43207  56.0829  84.8152 0005524  25.6094 334.5013  1.86231541 44567
BEIDOU-3 M3 (C21)       
1 43208U 18018B   24250.62714439 -.00000005  00000+0  00000+0 0  9998
2 43208  56.0871  84.6394 0005632 330.5579  29.4793  1.86231532 44663
BEIDOU-3 M9 (C29)       
1 43245U 18029A   24250.31067842 -.00000080  00000+0  00000+0 0  9999
2 43245  54.7557 322.5330 0001770 225.8466 134.2055  1.86232968 43810
BEIDOU-3 M10 (C30)      
1 43246U 18029B   24249.70328477 -.00000082  00000+0  00000+0 0  9997
2 43246  54.7533 322.5816 0002520 356.5526   3.5124  1.86233098 43783
BEIDOU-2 IGSO-7 (C16)   
1 43539U 18057A   24249.73150156 -.00000134  00000+0  00000+0 0  9991
2 43539  55.1492 168.6885 0078429 233.8153 318.4392  1.00287700 22626
BEIDOU-3 M5 (C23)       
1 43581U 18062A   24249.39038264  .00000019  00000+0  00000+0 0  9992
2 43581  54.1262 204.4036 0004827 287.9709  71.9400  1.86228895 41538
BEIDOU-3 M6 (C24)       
1 43582U 18062B   24250.32975272  .00000031  00000+0  00000+0 0  9991
2 43582  54.1258 204.3612 0005229   7.1577 352.8184  1.86229938 41556
BEIDOU-3 M12 (C26)      
1 43602U 18067A   24250.26270093  .00000030  00000+0  00000+0 0  9990
2 43602  54.2169 203.0522 0007418  21.5361 338.4643  1.86227793 41030
BEIDOU-3 M11 (C25)      
1 43603U 18067B   24249.32236547  .00000018  00000+0  00000+0 0  9998
2 43603  54.2142 203.0490 0004184   6.4595 353.5099  1.86231529 41040
BEIDOU-3 M13 (C32)      
1 43622U 18072A   24249.82121109 -.00000005  00000+0  00000+0 0  9994
2 43622  56.0579  84.1904 0004258 310.8852  49.1491  1.86231562 40560
BEIDOU-3 M14 (C33)      
1 43623U 18072B   24250.22362052 -.00000005  00000+0  00000+0 0  9995
2 43623  56.0602  84.1703 0003276   4.8169 355.2559  1.86231553 40561
BEIDOU-3 M16 (C35)      
1 43647U 18078A   24249.84892218 -.00000082  00000+0  00000+0 0  9990
2 43647  54.6523 322.6407 0005831  15.5047 344.5797  1.86232371 40066
BEIDOU-3 M15 (C34)      
1 43648U 18078B   24249.97805205 -.00000081  00000+0  00000+0 0  9994
2 43648  54.6479 322.6388 0002528  24.2313 335.8471  1.86232440 40089
BEIDOU-3 G1 (C59)       
1 43683U 18085A   24250.54151597 -.00000274  00000+0  00000+0 0  9998
2 43683   2.3864 106.5889 0002990  16.2724 198.1352  1.00277354 21559
BEIDOU-3 M17 (C36)      
1 43706U 18093A   24250.12931373  .00000029  00000+0  00000+0 0  9992
2 43706  54.2091 204.3230 0009687 286.5689  73.2923  1.86228530 39453
BEIDOU-3 M18 (C37)      
1 43707U 18093B   24248.38312988  .00000006  00000+0  00000+0 0  9998
2 43707  54.2102 204.3738 0008065 313.1262  46.7652  1.86230076 39411
BEIDOU-3 IGSO-1 (C38)   
1 44204U 19023A   24249.86382413 -.00000197  00000+0  00000+0 0  9991
2 44204  57.7648  44.3815 0023933 205.2907 166.4131  1.00277769   701
BEIDOU-2 G8 (C01)       
1 44231U 19027A   24250.50324130 -.00000243  00000+0  00000+0 0  9992
2 44231   1.6727  74.3126 0002742 180.3282  57.1625  1.00272530 19579
BEIDOU-3 IGSO-2 (C39)   
1 44337U 19035A   24250.63103197 -.00000131  00000+0  00000+0 0  9996
2 44337  55.1825 164.5569 0034733 203.3375 324.6651  1.00272177 19169
BEIDOU-3 M24 (C46)      
1 44542U 19061A   24250.06374528  .00000028  00000+0  00000+0 0  9992
2 44542  54.4369 204.6274 0008406 350.1441   9.8064  1.86229470 33702
BEIDOU-3 M23 (C45)      
1 44543U 19061B   24250.26996412  .00000031  00000+0  00000+0 0  9991
2 44543  54.4352 204.5892 0005725 334.1270  76.6330  1.86229718 33717
BEIDOU-3 IGSO-3 (C40)   
1 44709U 19073A   24249.50904997 -.00000155  00000+0  00000+0 0  9998
2 44709  55.9127 287.8751 0041431 190.4112 169.5960  1.00278164 17940
BEIDOU-3 M22 (C44)      
1 44793U 19078A   24249.90910204 -.00000082  00000+0  00000+0 0  9997
2 44793  54.5000 322.5608 0004561  23.3579 336.7293  1.86232367 32550
BEIDOU-3 M21 (C43)      
1 44794U 19078B   24247.89089867 -.00000084  00000+0  00000+0 0  9998
2 44794  54.4749 322.6054 0002514  11.0649 349.0056  1.86232813 32521
BEIDOU-3 M19 (C41)      
1 44864U 19090A   24248.91306171 -.00000003  00000+0  00000+0 0  9995
2 44864  55.9915  84.3875 0015438 282.1903 235.6912  1.86231933 32125
BEIDOU-3 M20 (C42)      
1 44865U 19090B   24249.28685008 -.00000004  00000+0  00000+0 0  9997
2 44865  55.9935  84.4085 0013166 297.5495 200.6474  1.86231853 32119
BEIDOU-3 G2 (C60)       
1 45344U 20017A   24250.44967491 -.00000137  00000+0  00000+0 0  9997
2 45344   2.4200  32.5271 0003081 172.4513  22.9592  1.00271447 16759
BEIDOU-3 G3 (C61)       
1 45807U 20040A   24246.66437307 -.00000363  00000+0  00000+0 0  9995
2 45807   0.9171  50.3777 0002078 342.9675 298.4796  1.00264318 15529
BEIDOU-3 G4             
1 56564U 23066A   24250.62766075 -.00000109  00000+0  00000+0 0  9994
2 56564   1.9253 288.4070 0006022 227.0434 216.7002  1.00271571  4892
BEIDOU-3 M25            
1 58654U 23207A   24249.04766676 -.00000005  00000+0  00000+0 0  9999
2 58654  55.1758  84.3432 0000162 319.4626  40.6104  1.86232380  4737
BEIDOU-3 M26            
1 58655U 23207B   24249.92068053 -.00000007  00000+0  00000+0 0  9993
2 58655  55.1787  84.2990 0001470 226.4345 133.6243  1.86231969  4735
